[{"OBJECT_NAME":"FORMOSAT 7-5","OBJECT_ID":"2019-036V","EPOCH":"2026-03-09T18:30:55.543680","MEAN_MOTION":14.96027232,"ECCENTRICITY":8.716e-5,"INCLINATION":23.9972,"RA_OF_ASC_NODE":218.3817,"ARG_OF_PERICENTER":89.5193,"MEAN_ANOMALY":270.5408,"EPHEMERIS_TYPE":0,"CLASSIFICATION_TYPE":"U","NORAD_CAT_ID":44358,"ELEMENT_SET_NO":999,"REV_AT_EPOCH":36744,"BSTAR":0.00030916132,"MEAN_MOTION_DOT":3.857e-5,"MEAN_MOTION_DDOT":0},{"OBJECT_NAME":"BREEZE-KM R\/B","OBJECT_ID":"2016-011B","EPOCH":"2026-03-09T13:46:31.765728","MEAN_MOTION":15.28220455,"ECCENTRICITY":0.0143188,"INCLINATION":98.6722,"RA_OF_ASC_NODE":284.67,"ARG_OF_PERICENTER":63.2473,"MEAN_ANOMALY":298.3333,"EPHEMERIS_TYPE":0,"CLASSIFICATION_TYPE":"U","NORAD_CAT_ID":41336,"ELEMENT_SET_NO":999,"REV_AT_EPOCH":55224,"BSTAR":0.00023628,"MEAN_MOTION_DOT":8.734e-5,"MEAN_MOTION_DDOT":0}]
